ASTROCAST 0.1           
1 43798U 18099AS  26194.78685753  .00022749  00000+0  38740-3 0  9997
2 43798  97.4375 274.1474 0005721 134.4275 225.7446 15.51384541418558
ASTROCAST-0402          
1 55109U 23001DE  26194.74810252  .00005997  00000+0  21568-3 0  9991
2 55109  97.5588 288.3508 0006380 137.9744 222.1986 15.28987810148596
ASTROCAST-0401          
1 55110U 23001DF  26194.82865470  .00009301  00000+0  33741-3 0  9993
2 55110  97.5573 288.2398 0009510 112.2736 247.9513 15.28520347195279
ASTROCAST-0403          
1 55111U 23001DG  26194.06506638  .00017178  00000+0  55264-3 0  9993
2 55111  97.5627 288.7711 0004551 219.6541 140.4368 15.32298453148526
ASTROCAST-0404          
1 55112U 23001DH  26194.78156780  .00004548  00000+0  16520-3 0  9991
2 55112  97.5674 289.3170 0005057 249.3613 110.7084 15.28810513148591
