{"fetched_at":"2026-07-14T06:34:33.178Z","source":"https://celestrak.org/NORAD/elements/gp.php?NAME=ASTROCAST&FORMAT=JSON","constellation":"astrocast","records":[{"OBJECT_NAME":"ASTROCAST 0.1","OBJECT_ID":"2018-099AS","EPOCH":"2026-07-13T18:53:04.490592","CLASSIFICATION_TYPE":"U","MEAN_MOTION":15.51384541,"ECCENTRICITY":0.0005721,"INCLINATION":97.4375,"RA_OF_ASC_NODE":274.1474,"ARG_OF_PERICENTER":134.4275,"MEAN_ANOMALY":225.7446,"EPHEMERIS_TYPE":0,"NORAD_CAT_ID":43798,"ELEMENT_SET_NO":999,"REV_AT_EPOCH":41855,"BSTAR":0.0003874,"MEAN_MOTION_DOT":0.00022749,"MEAN_MOTION_DDOT":0},{"OBJECT_NAME":"ASTROCAST-0402","OBJECT_ID":"2023-001DE","EPOCH":"2026-07-13T17:57:16.057728","CLASSIFICATION_TYPE":"U","MEAN_MOTION":15.2898781,"ECCENTRICITY":0.000638,"INCLINATION":97.5588,"RA_OF_ASC_NODE":288.3508,"ARG_OF_PERICENTER":137.9744,"MEAN_ANOMALY":222.1986,"EPHEMERIS_TYPE":0,"NORAD_CAT_ID":55109,"ELEMENT_SET_NO":999,"REV_AT_EPOCH":14859,"BSTAR":0.00021568,"MEAN_MOTION_DOT":0.00005997,"MEAN_MOTION_DDOT":0},{"OBJECT_NAME":"ASTROCAST-0401","OBJECT_ID":"2023-001DF","EPOCH":"2026-07-13T19:53:15.766080","CLASSIFICATION_TYPE":"U","MEAN_MOTION":15.28520347,"ECCENTRICITY":0.000951,"INCLINATION":97.5573,"RA_OF_ASC_NODE":288.2398,"ARG_OF_PERICENTER":112.2736,"MEAN_ANOMALY":247.9513,"EPHEMERIS_TYPE":0,"NORAD_CAT_ID":55110,"ELEMENT_SET_NO":999,"REV_AT_EPOCH":19527,"BSTAR":0.00033741,"MEAN_MOTION_DOT":0.00009301,"MEAN_MOTION_DDOT":0},{"OBJECT_NAME":"ASTROCAST-0403","OBJECT_ID":"2023-001DG","EPOCH":"2026-07-13T01:33:41.735232","CLASSIFICATION_TYPE":"U","MEAN_MOTION":15.32298453,"ECCENTRICITY":0.00045515,"INCLINATION":97.5627,"RA_OF_ASC_NODE":288.7711,"ARG_OF_PERICENTER":219.6541,"MEAN_ANOMALY":140.4368,"EPHEMERIS_TYPE":0,"NORAD_CAT_ID":55111,"ELEMENT_SET_NO":999,"REV_AT_EPOCH":14852,"BSTAR":0.00055264209,"MEAN_MOTION_DOT":0.00017178,"MEAN_MOTION_DDOT":0},{"OBJECT_NAME":"ASTROCAST-0404","OBJECT_ID":"2023-001DH","EPOCH":"2026-07-13T18:45:27.457920","CLASSIFICATION_TYPE":"U","MEAN_MOTION":15.28810513,"ECCENTRICITY":0.0005057,"INCLINATION":97.5674,"RA_OF_ASC_NODE":289.317,"ARG_OF_PERICENTER":249.3613,"MEAN_ANOMALY":110.7084,"EPHEMERIS_TYPE":0,"NORAD_CAT_ID":55112,"ELEMENT_SET_NO":999,"REV_AT_EPOCH":14859,"BSTAR":0.0001652,"MEAN_MOTION_DOT":0.00004548,"MEAN_MOTION_DDOT":0}]}
